1 42012U 17008BS  21152.82794793  .00003556  00000-0  13016-3 0  9998
2 42012  97.3249 221.5555 0007879 150.4133 209.7554 15.28664673238719
1 42012U 17008BS  21153.28615969  .00003601  00000-0  13176-3 0  9994
2 42012  97.3250 222.0064 0007924 148.9880 211.1829 15.28667799238785
1 42012U 17008BS  21153.61345355  .00003345  00000-0  12255-3 0  9992
2 42012  97.3250 222.3284 0007937 148.0191 212.1532 15.28669257238831
1 42012U 17008BS  21154.46441476  .00003417  00000-0  12511-3 0  9992
2 42012  97.3252 223.1658 0008011 145.4405 214.7357 15.28674911238960
1 42012U 17008BS  21154.59533149  .00003557  00000-0  13012-3 0  9997
2 42012  97.3252 223.2946 0008021 145.0339 215.1429 15.28676269238989
1 42012U 17008BS  21155.11899796  .00003550  00000-0  12986-3 0  9991
2 42012  97.3252 223.8100 0008059 143.4204 216.7587 15.28679641239060
1 42012U 17008BS  21155.44628864  .00003730  00000-0  13629-3 0  9998
2 42012  97.3252 224.1320 0008099 142.4725 217.7082 15.28682478239118
1 42012U 17008BS  21155.90449494  .00003787  00000-0  13833-3 0  9998
2 42012  97.3252 224.5829 0008138 141.1777 219.0049 15.28685603239181
1 42012U 17008BS  21156.42815794  .00003717  00000-0  13581-3 0  9999
2 42012  97.3253 225.0983 0008184 139.5848 220.6001 15.28689439239266
1 42012U 17008BS  21156.49361571  .00003755  00000-0  13718-3 0  9999
2 42012  97.3254 225.1626 0008185 139.4082 220.7770 15.28690027239272
1 42012U 17008BS  21156.75544688  .00003631  00000-0  13271-3 0  9997
2 42012  97.3254 225.4203 0008199 138.5854 221.6009 15.28691552239312
1 42012U 17008BS  21157.34456547  .00003671  00000-0  13412-3 0  9990
2 42012  97.3255 226.0001 0008244 136.8278 223.3610 15.28695781239403
1 42012U 17008BS  21157.73731020  .00003759  00000-0  13728-3 0  9992
2 42012  97.3255 226.3865 0008270 135.6514 224.5390 15.28698821239465
1 42012U 17008BS  21158.45734051  .00002931  00000-0  10760-3 0  9993
2 42012  97.3254 227.0951 0008315 133.6241 226.5690 15.28701881239571
1 42012U 17008BS  21158.91553999  .00003170  00000-0  11615-3 0  9990
2 42012  97.3253 227.5459 0008335 132.3745 227.8202 15.28705949239645
1 42012U 17008BS  21159.11191102  .00003112  00000-0  11409-3 0  9994
2 42012  97.3253 227.7392 0008342 131.7985 228.3969 15.28707309239671
1 42012U 17008BS  21159.43919477  .00004173  00000-0  15201-3 0  9994
2 42012  97.3253 228.0613 0008372 130.8312 229.3655 15.28712751239724
1 42012U 17008BS  21159.89739206  .00003729  00000-0  13614-3 0  9996
2 42012  97.3253 228.5122 0008398 129.4621 230.7363 15.28715317239799
1 42012U 17008BS  21160.15921851  .00003630  00000-0  13256-3 0  9999
2 42012  97.3253 228.7698 0008416 128.6712 231.5282 15.28717292239830
1 42012U 17008BS  21160.61741370  .00003762  00000-0  13729-3 0  9997
2 42012  97.3253 229.2207 0008448 127.2908 232.9104 15.28721463239900
1 42012U 17008BS  21160.74832654  .00003654  00000-0  13342-3 0  9998
2 42012  97.3253 229.3496 0008447 126.8876 233.3139 15.28722170239920
1 42012U 17008BS  21161.27197663  .00003354  00000-0  12265-3 0  9991
2 42012  97.3252 229.8650 0008475 125.4009 234.8024 15.28725688240007
1 42012U 17008BS  21161.73016930  .00003252  00000-0  11901-3 0  9992
2 42012  97.3250 230.3159 0008495 124.1312 236.0735 15.28729129240075
1 42012U 17008BS  21161.99199339  .00003001  00000-0  11002-3 0  9999
2 42012  97.3250 230.5736 0008508 123.4376 236.7678 15.28730332240111
1 42012U 17008BS  21162.45018428  .00003524  00000-0  12870-3 0  9994
2 42012  97.3249 231.0245 0008524 122.1778 238.0289 15.28735152240185
1 42012U 17008BS  21162.71200719  .00003566  00000-0  13019-3 0  9991
2 42012  97.3248 231.2822 0008537 121.4546 238.7530 15.28737440240229
1 42012U 17008BS  21163.43201713  .00004152  00000-0  15112-3 0  9994
2 42012  97.3247 231.9909 0008569 119.3857 240.8240 15.28745379240331
1 42012U 17008BS  21163.62838297  .00004104  00000-0  14938-3 0  9990
2 42012  97.3246 232.1842 0008575 118.8107 241.3995 15.28747207240366
1 42012U 17008BS  21164.28293425  .00003975  00000-0  14475-3 0  9992
2 42012  97.3245 232.8284 0008607 116.8722 243.3399 15.28752994240469
1 42012U 17008BS  21164.74111822  .00004069  00000-0  14811-3 0  9992
2 42012  97.3244 233.2793 0008628 115.5716 244.6417 15.28757813240538
1 42012U 17008BS  21165.46111887  .00003916  00000-0  14260-3 0  9991
2 42012  97.3243 233.9880 0008628 113.5568 246.6579 15.28764564240648
1 42012U 17008BS  21165.91929986  .00003617  00000-0  13189-3 0  9995
2 42012  97.3242 234.4389 0008633 112.3802 247.8354 15.28767997240716
1 42012U 17008BS  21166.11566270  .00003629  00000-0  13231-3 0  9992
2 42012  97.3242 234.6322 0008628 111.8302 248.3856 15.28769843240746
1 42012U 17008BS  21166.44293398  .00003440  00000-0  12557-3 0  9997
2 42012  97.3242 234.9543 0008640 110.9511 249.2655 15.28772028240791
1 42012U 17008BS  21166.83565849  .00003769  00000-0  13728-3 0  9998
2 42012  97.3241 235.3409 0008653 109.8169 250.4004 15.28776134240857
1 42012U 17008BS  21167.42474326  .00004263  00000-0  15489-3 0  9999
2 42012  97.3242 235.9206 0008668 108.1376 252.0809 15.28782472240940
1 42012U 17008BS  21167.49019698  .00004408  00000-0  16009-3 0  9993
2 42012  97.3243 235.9850 0008669 107.9420 252.2766 15.28783393240952
1 42012U 17008BS  21167.68655808  .00004392  00000-0  15950-3 0  9999
2 42012  97.3243 236.1783 0008677 107.3789 252.8401 15.28785147240985
1 42012U 17008BS  21168.21018634  .00004681  00000-0  16979-3 0  9992
2 42012  97.3243 236.6937 0008678 105.8425 254.3772 15.28790555241069
1 42012U 17008BS  21168.66835936  .00004851  00000-0  17582-3 0  9993
2 42012  97.3243 237.1446 0008695 104.5965 255.6240 15.28795527241130
1 42012U 17008BS  21169.19198427  .00004162  00000-0  15124-3 0  9994
2 42012  97.3243 237.6598 0008691 103.2064 257.0146 15.28798992241214
1 42012U 17008BS  21169.58470181  .00004168  00000-0  15143-3 0  9994
2 42012  97.3244 238.0463 0008688 102.1158 258.1056 15.28802891241271
1 42012U 17008BS  21170.43558684  .00004040  00000-0  14681-3 0  9990
2 42012  97.3246 238.8838 0008687  99.7598 260.4624 15.28810413241406
1 42012U 17008BS  21170.82830218  .00003617  00000-0  13172-3 0  9992
2 42012  97.3246 239.2703 0008697  98.6203 261.6023 15.28812544241463
1 42012U 17008BS  21172.46460710  .00003732  00000-0  13576-3 0  9996
2 42012  97.3249 240.8807 0008683  93.9624 266.2608 15.28825074241719
1 42012U 17008BS  21172.66096330  .00003206  00000-0  11701-3 0  9995
2 42012  97.3249 241.0740 0008675  93.4565 266.7668 15.28825056241742
1 42012U 17008BS  21173.57728793  .00003958  00000-0  14381-3 0  9992
2 42012  97.3250 241.9758 0008645  90.8925 269.3306 15.28833192241883
1 42012U 17008BS  21173.90454592  .00003850  00000-0  13992-3 0  9990
2 42012  97.3249 242.2980 0008646  89.9720 270.2511 15.28835136241930
1 42012U 17008BS  21174.42815718  .00004034  00000-0  14649-3 0  9994
2 42012  97.3249 242.8134 0008642  88.5227 271.7004 15.28839596242017
1 42012U 17008BS  21174.82086474  .00004261  00000-0  15455-3 0  9995
2 42012  97.3248 243.1999 0008645  87.3560 272.8669 15.28843103242073
1 42012U 17008BS  21175.14812019  .00004418  00000-0  16012-3 0  9997
2 42012  97.3248 243.5220 0008637  86.4267 273.7960 15.28846234242127
1 42012U 17008BS  21175.40992438  .00004046  00000-0  14688-3 0  9994
2 42012  97.3248 243.7797 0008632  85.6984 274.5242 15.28847344242169
1 42012U 17008BS  21175.73717883  .00004132  00000-0  14993-3 0  9994
2 42012  97.3247 244.1018 0008614  84.7447 275.4776 15.28850320242219
1 42012U 17008BS  21176.32623526  .00004667  00000-0  16895-3 0  9996
2 42012  97.3245 244.6816 0008577  83.3027 276.9189 15.28856453242302
1 42012U 17008BS  21176.65348827  .00004416  00000-0  16000-3 0  9990
2 42012  97.3244 245.0037 0008567  82.2836 277.9377 15.28858623242352
1 42012U 17008BS  21176.84983979  .00004196  00000-0  15218-3 0  9999
2 42012  97.3244 245.1970 0008560  81.6930 278.5280 15.28859604242383
1 42012U 17008BS  21177.43889281  .00004176  00000-0  15143-3 0  9991
2 42012  97.3243 245.7768 0008532  80.0667 280.1536 15.28864510242477
1 42012U 17008BS  21177.70069352  .00004157  00000-0  15075-3 0  9993
2 42012  97.3242 246.0346 0008530  79.3124 280.9076 15.28866819242515
1 42012U 17008BS  21177.83159350  .00004425  00000-0  16029-3 0  9993
2 42012  97.3242 246.1634 0008527  78.9261 281.2937 15.28868637242531
1 42012U 17008BS  21178.42064321  .00004218  00000-0  15290-3 0  9991
2 42012  97.3241 246.7433 0008517  77.2687 282.9505 15.28873242242623
1 42012U 17008BS  21178.74789213  .00004379  00000-0  15860-3 0  9991
2 42012  97.3240 247.0654 0008502  76.2479 283.9707 15.28876478242677
1 42012U 17008BS  21179.33693832  .00004400  00000-0  15934-3 0  9995
2 42012  97.3239 247.6453 0008471  74.5200 285.6975 15.28881801242768
1 42012U 17008BS  21179.86053332  .00004597  00000-0  16632-3 0  9991
2 42012  97.3238 248.1607 0008441  73.0416 287.1749 15.28886856242844
1 42012U 17008BS  21180.05688104  .00004651  00000-0  16822-3 0  9997
2 42012  97.3238 248.3539 0008424  72.4815 287.7345 15.28888720242870
1 42012U 17008BS  21180.18777959  .00004625  00000-0  16730-3 0  9997
2 42012  97.3238 248.4828 0008413  72.0978 288.1179 15.28889721242890
1 42012U 17008BS  21180.84227006  .00004971  00000-0  17959-3 0  9991
2 42012  97.3237 249.1270 0008374  70.2514 289.9629 15.28896183242990
1 42012U 17008BS  21181.16951434  .00004257  00000-0  15416-3 0  9999
2 42012  97.3237 249.4491 0008353  69.2658 290.9477 15.28897568243040
1 42012U 17008BS  21181.49675811  .00005176  00000-0  18682-3 0  9996
2 42012  97.3238 249.7712 0008335  68.3623 291.8504 15.28902361243096
1 42012U 17008BS  21181.82400101  .00005296  00000-0  19108-3 0  9998
2 42012  97.3239 250.0933 0008321  67.3412 292.8707 15.28905618243147
1 42012U 17008BS  21182.28213907  .00006332  00000-0  22788-3 0  9995
2 42012  97.3239 250.5442 0008294  65.9730 294.2377 15.28912941243217
1 42012U 17008BS  21182.87117290  .00005809  00000-0  20926-3 0  9998
2 42012  97.3239 251.1240 0008262  64.3293 295.8800 15.28916854243307
